{
    "links": {
        "self": "http://www.neowsapp.com/rest/v1/neo/3825524?api_key=iIulBulltgU6a56xZRHN4H3l9WmuAYTsLGpBGhQ2"
    },
    "id": "3825524",
    "neo_reference_id": "3825524",
    "name": "(2018 NH)",
    "designation": "2018 NH",
    "nasa_jpl_url": "http://ssd.jpl.nasa.gov/sbdb.cgi?sstr=3825524",
    "absolute_magnitude_h": 24.7,
    "estimated_diameter": {
        "kilometers": {
            "estimated_diameter_min": 0.0305179233,
            "estimated_diameter_max": 0.0682401509
        },
        "meters": {
            "estimated_diameter_min": 30.5179232594,
            "estimated_diameter_max": 68.2401509401
        },
        "miles": {
            "estimated_diameter_min": 0.0189629525,
            "estimated_diameter_max": 0.0424024508
        },
        "feet": {
            "estimated_diameter_min": 100.1244233463,
            "estimated_diameter_max": 223.8850168104
        }
    },
    "is_potentially_hazardous_asteroid": false,
    "close_approach_data": [
        {
            "close_approach_date": "2018-07-02",
            "close_approach_date_full": "2018-Jul-02 17:31",
            "epoch_date_close_approach": 1530552660000,
            "relative_velocity": {
                "kilometers_per_second": "22.237790304",
                "kilometers_per_hour": "80056.0450943456",
                "miles_per_hour": "49743.7131309838"
            },
            "miss_distance": {
                "astronomical": "0.0028980586",
                "lunar": "1.1273447954",
                "kilometers": "433543.393695182",
                "miles": "269391.3729982316"
            },
            "orbiting_body": "Earth"
        },
        {
            "close_approach_date": "2018-07-02",
            "close_approach_date_full": "2018-Jul-02 18:36",
            "epoch_date_close_approach": 1530556560000,
            "relative_velocity": {
                "kilometers_per_second": "22.6870705733",
                "kilometers_per_hour": "81673.4540639149",
                "miles_per_hour": "50748.7081654365"
            },
            "miss_distance": {
                "astronomical": "0.0010935836",
                "lunar": "0.4254040204",
                "kilometers": "163597.777226932",
                "miles": "101654.9449663816"
            },
            "orbiting_body": "Moon"
        }
    ],
    "orbital_data": {
        "orbit_id": "8",
        "orbit_determination_date": "2018-08-08 07:02:41",
        "first_observation_date": "2018-07-04",
        "last_observation_date": "2018-07-17",
        "data_arc_in_days": 13,
        "observations_used": 88,
        "orbit_uncertainty": "8",
        "minimum_orbit_intersection": ".000781064",
        "jupiter_tisserand_invariant": "3.592",
        "epoch_osculation": "2458304.5",
        "eccentricity": ".5197751274388096",
        "semi_major_axis": "1.888914529286187",
        "inclination": "35.60225836616373",
        "ascending_node_longitude": "280.7001069014999",
        "orbital_period": "948.2369786306919",
        "perihelion_distance": ".9071037391054403",
        "perihelion_argument": "313.0583961761556",
        "aphelion_distance": "2.870725319466934",
        "perihelion_time": "2458266.122719868351",
        "mean_anomaly": "14.57000850920671",
        "mean_motion": ".3796519310181939",
        "equinox": "J2000",
        "orbit_class": {
            "orbit_class_type": "APO",
            "orbit_class_description": "Near-Earth asteroid orbits which cross the Earth’s orbit similar to that of 1862 Apollo",
            "orbit_class_range": "a (semi-major axis) > 1.0 AU; q (perihelion) < 1.017 AU"
        }
    },
    "is_sentry_object": false
}